OBJECT_NAME,OBJECT_ID,EPOCH,MEAN_MOTION,ECCENTRICITY,INCLINATION,RA_OF_ASC_NODE,ARG_OF_PERICENTER,MEAN_ANOMALY,EPHEMERIS_TYPE,CLASSIFICATION_TYPE,NORAD_CAT_ID,ELEMENT_SET_NO,REV_AT_EPOCH,BSTAR,MEAN_MOTION_DOT,MEAN_MOTION_DDOT
HAWK-5A,2022-057AB,2026-06-25T22:39:24.087456,15.51686138,.00049285,97.6609,336.3590,50.2475,309.9210,0,U,52757,999,22770,.35945905E-3,.21318E-3,0
HAWK-6B,2023-011A,2026-06-25T18:33:39.198240,15.23004156,.00013154,40.4996,301.9900,88.2706,271.8254,0,U,55324,999,18915,.2118409E-3,.4895E-4,0
HAWK-6C,2023-011C,2026-06-25T18:32:44.260800,15.22997317,.00020257,40.4981,298.8315,66.4382,293.6640,0,U,55326,999,18916,.19891294E-3,.4583E-4,0
HAWK-6A,2023-011D,2026-06-25T18:32:47.669280,15.23002017,.000166,40.4994,300.4567,59.6489,300.4484,0,U,55327,999,18916,.21166504E-3,.489E-4,0
HAWK-7A,2023-054P,2026-06-26T05:12:00.614592,15.27448816,.0003592,97.2698,64.3245,36.6947,323.4538,0,U,56191,999,17840,.23850962E-3,.6336E-4,0
HAWK-7B,2023-054R,2026-06-26T05:11:54.328128,15.27447157,.00031989,97.2725,62.5917,52.3721,307.7808,0,U,56193,999,17840,.2400486E-3,.6377E-4,0
HAWK-7C,2023-054Y,2026-06-26T05:11:44.214144,15.27447414,.0003023,97.2702,63.3574,42.6172,317.5301,0,U,56200,999,17840,.23571981E-3,.626E-4,0
