HAWK-5A                 
1 52757U 22057AB  26176.94402879  .00021318  00000+0  35946-3 0  9991
2 52757  97.6609 336.3590 0004928  50.2475 309.9210 15.51686138227706
HAWK-6B                 
1 55324U 23011A   26176.77337035  .00004895  00000+0  21184-3 0  9997
2 55324  40.4996 301.9900 0001315  88.2706 271.8254 15.23004156189156
HAWK-6C                 
1 55326U 23011C   26176.77273450  .00004583  00000+0  19891-3 0  9995
2 55326  40.4981 298.8315 0002025  66.4382 293.6640 15.22997317189164
HAWK-6A                 
1 55327U 23011D   26176.77277395  .00004890  00000+0  21167-3 0  9998
2 55327  40.4994 300.4567 0001660  59.6489 300.4484 15.23002017189162
HAWK-7A                 
1 56191U 23054P   26177.21667378  .00006336  00000+0  23851-3 0  9998
2 56191  97.2698  64.3245 0003592  36.6947 323.4538 15.27448816178407
HAWK-7B                 
1 56193U 23054R   26177.21660102  .00006377  00000+0  24005-3 0  9995
2 56193  97.2725  62.5917 0003198  52.3721 307.7808 15.27447157178405
HAWK-7C                 
1 56200U 23054Y   26177.21648396  .00006260  00000+0  23572-3 0  9994
2 56200  97.2702  63.3574 0003023  42.6172 317.5301 15.27447414178409
